[{"OBJECT_NAME":"RAPTOR1","OBJECT_ID":"2024-028C","EPOCH":"2026-03-09T12:42:01.746432","MEAN_MOTION":13.70310646,"ECCENTRICITY":0.0011567,"INCLINATION":39.9898,"RA_OF_ASC_NODE":141.7891,"ARG_OF_PERICENTER":33.7881,"MEAN_ANOMALY":326.3601,"EPHEMERIS_TYPE":0,"CLASSIFICATION_TYPE":"U","NORAD_CAT_ID":58957,"ELEMENT_SET_NO":999,"REV_AT_EPOCH":10338,"BSTAR":4.5249e-5,"MEAN_MOTION_DOT":-3.8e-7,"MEAN_MOTION_DDOT":0},{"OBJECT_NAME":"COSMOS 1550","OBJECT_ID":"1984-043A","EPOCH":"2026-03-09T17:26:41.989632","MEAN_MOTION":13.73017041,"ECCENTRICITY":0.0024568,"INCLINATION":82.9707,"RA_OF_ASC_NODE":293.2657,"ARG_OF_PERICENTER":297.9663,"MEAN_ANOMALY":130.1785,"EPHEMERIS_TYPE":0,"CLASSIFICATION_TYPE":"U","NORAD_CAT_ID":14965,"ELEMENT_SET_NO":999,"REV_AT_EPOCH":9615,"BSTAR":4.4375342e-5,"MEAN_MOTION_DOT":5.6e-7,"MEAN_MOTION_DDOT":0}]
